1 42069U 12345A   22080.05959039  .00000000  00000+0  51116-6 0  9997
2 42069  96.4744  53.0528 0000000 000.0000 000.0000 16.11430000000006